{
  "norad_id": 57226,
  "name": "STARLINK-6350",
  "history": [
    {
      "epoch": "2026-03-28T20:22:20.542368Z",
      "apogee_km": 486.6803711157663,
      "perigee_km": 484.33712245781317,
      "latitude_deg": 1.73842599234312e-05,
      "longitude_deg": 150.83382580818497,
      "height_km": 485.25598865202187,
      "semi_major_axis_km": 6863.6457467867895,
      "eccentricity": 0.0001707,
      "inclination_deg": 43.0004,
      "raan_deg": 282.6828,
      "arg_perigee_deg": 271.4592,
      "mean_anomaly_deg": 88.6064,
      "mean_motion_rev_day": 15.2675894
    }
  ]
}